{
  "type": "FeatureCollection",
  "features": [
    {
      "type": "Feature",
      "properties": {
        "norad_id": 30860,
        "name": "FENGYUN 1C DEB",
        "group": "fengyun-1c-debris",
        "lat": -6.398343685900307,
        "lon": 68.89888072506146,
        "alt_km": 839.064635336189,
        "timestamp": "2025-12-20T07:33:51.092100+00:00",
        "meta_object_name": "FENGYUN 1C DEB",
        "meta_object_id": "1999-025AWW",
        "meta_epoch": "2025-12-19T11:22:49.711008",
        "meta_mean_motion": 14.25543512,
        "meta_eccentricity": 0.0040269,
        "meta_inclination": 98.9057,
        "meta_ra_of_asc_node": 67.0376,
        "meta_arg_of_pericenter": 168.7932,
        "meta_mean_anomaly": 191.4153,
        "meta_ephemeris_type": 0,
        "meta_classification_type": "U",
        "meta_norad_cat_id": 30860,
        "meta_element_set_no": 999,
        "meta_rev_at_epoch": 96612,
        "meta_bstar": 0.0011254,
        "meta_mean_motion_dot": 2.64e-05,
        "meta_mean_motion_ddot": 0,
        "tle_line1": "1 30860U 99025AWW 25353.47418647  .00002640  00000+0  11254-2 0  9997",
        "tle_line2": "2 30860  98.9057  67.0376 0040269 168.7932 191.4153 14.25543512966123"
      },
      "geometry": {
        "type": "Point",
        "coordinates": [
          68.89888072506146,
          -6.398343685900307
        ]
      }
    },
    {
      "type": "Feature",
      "properties": {
        "norad_id": 30862,
        "name": "FENGYUN 1C DEB",
        "group": "fengyun-1c-debris",
        "lat": -79.78998313199654,
        "lon": 146.6303212149719,
        "alt_km": 780.6831050058654,
        "timestamp": "2025-12-20T07:33:51.092110+00:00",
        "meta_object_name": "FENGYUN 1C DEB",
        "meta_object_id": "1999-025AWY",
        "meta_epoch": "2025-12-17T05:13:21.995616",
        "meta_mean_motion": 14.43167905,
        "meta_eccentricity": 0.00522868,
        "meta_inclination": 98.9603,
        "meta_ra_of_asc_node": 82.2098,
        "meta_arg_of_pericenter": 150.6942,
        "meta_mean_anomaly": 239.608,
        "meta_ephemeris_type": 0,
        "meta_classification_type": "U",
        "meta_norad_cat_id": 30862,
        "meta_element_set_no": 999,
        "meta_rev_at_epoch": 96784,
        "meta_bstar": 0.0025604626,
        "meta_mean_motion_dot": 8.708e-05,
        "meta_mean_motion_ddot": 0,
        "tle_line1": "1 30862U 99025AWY 25351.21761569  .00008708  00000+0  25605-2 0  9999",
        "tle_line2": "2 30862  98.9603  82.2098 0052286 150.6942 239.6080 14.43167905967847"
      },
      "geometry": {
        "type": "Point",
        "coordinates": [
          146.6303212149719,
          -79.78998313199654
        ]
      }
    },
    {
      "type": "Feature",
      "properties": {
        "norad_id": 30863,
        "name": "FENGYUN 1C DEB",
        "group": "fengyun-1c-debris",
        "lat": 61.77461421152934,
        "lon": 166.18037690759112,
        "alt_km": 2180.4449188865447,
        "timestamp": "2025-12-20T07:33:51.092120+00:00",
        "meta_object_name": "FENGYUN 1C DEB",
        "meta_object_id": "1999-025AWZ",
        "meta_epoch": "2025-12-19T07:04:33.038112",
        "meta_mean_motion": 12.40534508,
        "meta_eccentricity": 0.0877591,
        "meta_inclination": 99.1211,
        "meta_ra_of_asc_node": 182.8152,
        "meta_arg_of_pericenter": 236.6121,
        "meta_mean_anomaly": 313.591,
        "meta_ephemeris_type": 0,
        "meta_classification_type": "U",
        "meta_norad_cat_id": 30863,
        "meta_element_set_no": 999,
        "meta_rev_at_epoch": 59821,
        "meta_bstar": 0.0026084,
        "meta_mean_motion_dot": 1.339e-05,
        "meta_mean_motion_ddot": 0,
        "tle_line1": "1 30863U 99025AWZ 25353.29482683  .00001339  00000+0  26084-2 0  9992",
        "tle_line2": "2 30863  99.1211 182.8152 0877591 236.6121 313.5910 12.40534508598219"
      },
      "geometry": {
        "type": "Point",
        "coordinates": [
          166.18037690759112,
          61.77461421152934
        ]
      }
    },
    {
      "type": "Feature",
      "properties": {
        "norad_id": 30867,
        "name": "FENGYUN 1C DEB",
        "group": "fengyun-1c-debris",
        "lat": 52.69785449118332,
        "lon": 90.88106275188156,
        "alt_km": 827.7498483509726,
        "timestamp": "2025-12-20T07:33:51.092130+00:00",
        "meta_object_name": "FENGYUN 1C DEB",
        "meta_object_id": "1999-025AXD",
        "meta_epoch": "2025-12-18T05:14:29.791968",
        "meta_mean_motion": 14.28057797,
        "meta_eccentricity": 0.00540947,
        "meta_inclination": 97.8775,
        "meta_ra_of_asc_node": 258.5183,
        "meta_arg_of_pericenter": 339.8314,
        "meta_mean_anomaly": 173.0495,
        "meta_ephemeris_type": 0,
        "meta_classification_type": "U",
        "meta_norad_cat_id": 30867,
        "meta_element_set_no": 999,
        "meta_rev_at_epoch": 96615,
        "meta_bstar": 0.0020025766,
        "meta_mean_motion_dot": 5.016e-05,
        "meta_mean_motion_ddot": 0,
        "tle_line1": "1 30867U 99025AXD 25352.21840037  .00005016  00000+0  20026-2 0  9994",
        "tle_line2": "2 30867  97.8775 258.5183 0054094 339.8314 173.0495 14.28057797966150"
      },
      "geometry": {
        "type": "Point",
        "coordinates": [
          90.88106275188156,
          52.69785449118332
        ]
      }
    },
    {
      "type": "Feature",
      "properties": {
        "norad_id": 30868,
        "name": "FENGYUN 1C DEB",
        "group": "fengyun-1c-debris",
        "lat": -41.780677135732375,
        "lon": 44.29294001406158,
        "alt_km": 777.820579022934,
        "timestamp": "2025-12-20T07:33:51.092140+00:00",
        "meta_object_name": "FENGYUN 1C DEB",
        "meta_object_id": "1999-025AXE",
        "meta_epoch": "2025-12-19T22:05:52.298880",
        "meta_mean_motion": 14.11123585,
        "meta_eccentricity": 0.01355222,
        "meta_inclination": 98.2632,
        "meta_ra_of_asc_node": 231.3903,
        "meta_arg_of_pericenter": 192.2075,
        "meta_mean_anomaly": 186.6332,
        "meta_ephemeris_type": 0,
        "meta_classification_type": "U",
        "meta_norad_cat_id": 30868,
        "meta_element_set_no": 999,
        "meta_rev_at_epoch": 96812,
        "meta_bstar": 6.1074563e-05,
        "meta_mean_motion_dot": 8.1e-07,
        "meta_mean_motion_ddot": 0,
        "tle_line1": "1 30868U 99025AXE 25353.92074420  .00000081  00000+0  61075-4 0  9997",
        "tle_line2": "2 30868  98.2632 231.3903 0135522 192.2075 186.6332 14.11123585968128"
      },
      "geometry": {
        "type": "Point",
        "coordinates": [
          44.29294001406158,
          -41.780677135732375
        ]
      }
    },
    {
      "type": "Feature",
      "properties": {
        "norad_id": 30872,
        "name": "FENGYUN 1C DEB",
        "group": "fengyun-1c-debris",
        "lat": 77.9575053500895,
        "lon": -2.1562795452133896,
        "alt_km": 745.778522211298,
        "timestamp": "2025-12-20T07:33:51.092150+00:00",
        "meta_object_name": "FENGYUN 1C DEB",
        "meta_object_id": "1999-025AXJ",
        "meta_epoch": "2025-12-19T02:57:08.127936",
        "meta_mean_motion": 14.39455661,
        "meta_eccentricity": 0.00405626,
        "meta_inclination": 99.1927,
        "meta_ra_of_asc_node": 45.9505,
        "meta_arg_of_pericenter": 9.8003,
        "meta_mean_anomaly": 17.5989,
        "meta_ephemeris_type": 0,
        "meta_classification_type": "U",
        "meta_norad_cat_id": 30872,
        "meta_element_set_no": 999,
        "meta_rev_at_epoch": 97828,
        "meta_bstar": 0.00064483467,
        "meta_mean_motion_dot": 1.978e-05,
        "meta_mean_motion_ddot": 0,
        "tle_line1": "1 30872U 99025AXJ 25353.12301074  .00001978  00000+0  64483-3 0  9993",
        "tle_line2": "2 30872  99.1927  45.9505 0040562   9.8003  17.5989 14.39455661978281"
      },
      "geometry": {
        "type": "Point",
        "coordinates": [
          -2.1562795452133896,
          77.9575053500895
        ]
      }
    },
    {
      "type": "Feature",
      "properties": {
        "norad_id": 30873,
        "name": "FENGYUN 1C DEB",
        "group": "fengyun-1c-debris",
        "lat": 6.830120299626179,
        "lon": 175.45095114382588,
        "alt_km": 834.4403766859041,
        "timestamp": "2025-12-20T07:33:51.092160+00:00",
        "meta_object_name": "FENGYUN 1C DEB",
        "meta_object_id": "1999-025AXK",
        "meta_epoch": "2025-12-19T18:53:43.091520",
        "meta_mean_motion": 14.19144223,
        "meta_eccentricity": 0.01076938,
        "meta_inclination": 98.6116,
        "meta_ra_of_asc_node": 353.8979,
        "meta_arg_of_pericenter": 268.223,
        "meta_mean_anomaly": 90.6609,
        "meta_ephemeris_type": 0,
        "meta_classification_type": "U",
        "meta_norad_cat_id": 30873,
        "meta_element_set_no": 999,
        "meta_rev_at_epoch": 97292,
        "meta_bstar": 0.00015222939,
        "meta_mean_motion_dot": 2.94e-06,
        "meta_mean_motion_ddot": 0,
        "tle_line1": "1 30873U 99025AXK 25353.78730430  .00000294  00000+0  15223-3 0  9996",
        "tle_line2": "2 30873  98.6116 353.8979 0107693 268.2230  90.6609 14.19144223972927"
      },
      "geometry": {
        "type": "Point",
        "coordinates": [
          175.45095114382588,
          6.830120299626179
        ]
      }
    }
  ]
}